{"type": "FeatureCollection", "features": [ {"type": "Feature", "properties": {"norad_id": 29892, "name": "FENGYUN 1C DEB", "group": "fengyun-1c-debris", "lat": 12.632386570980032, "lon": -32.022919087298895, "alt_km": 802.8317886800851, "timestamp": "2025-12-23T16:57:12.624255+00:00", "meta": {"OBJECT_NAME": "FENGYUN 1C DEB", "OBJECT_ID": "1999-025GN", "EPOCH": "2025-12-23T06:39:50.057280", "MEAN_MOTION": 14.32382234, "ECCENTRICITY": 0.01922289, "INCLINATION": 99.1806, "RA_OF_ASC_NODE": 145.446, "ARG_OF_PERICENTER": 266.913, "MEAN_ANOMALY": 212.7967, "EPHEMERIS_TYPE": 0, "CLASSIFICATION_TYPE": "U", "NORAD_CAT_ID": 29892, "ELEMENT_SET_NO": 999, "REV_AT_EPOCH": 96800, "BSTAR": 0.0035113366, "MEAN_MOTION_DOT": 0.00011612, "MEAN_MOTION_DDOT": 0}, "tle": {"line1": "1 29892U 99025GN  25357.27766270  .00011612  00000+0  35113-2 0  9999", "line2": "2 29892  99.1806 145.4460 0192228 266.9130 212.7967 14.32382234968009"}}, "geometry": {"type": "Point", "coordinates": [-32.022919087298895, 12.632386570980032]}}, {"type": "Feature", "properties": {"norad_id": 29893, "name": "FENGYUN 1C DEB", "group": "fengyun-1c-debris", "lat": 7.290763010347994, "lon": 91.61594783362679, "alt_km": 1022.6115483407011, "timestamp": "2025-12-23T16:57:12.624266+00:00", "meta": {"OBJECT_NAME": "FENGYUN 1C DEB", "OBJECT_ID": "1999-025GP", "EPOCH": "2025-12-23T05:01:02.454816", "MEAN_MOTION": 13.79466139, "ECCENTRICITY": 0.01738945, "INCLINATION": 98.5529, "RA_OF_ASC_NODE": 92.2696, "ARG_OF_PERICENTER": 125.2142, "MEAN_ANOMALY": 295.5839, "EPHEMERIS_TYPE": 0, "CLASSIFICATION_TYPE": "U", "NORAD_CAT_ID": 29893, "ELEMENT_SET_NO": 999, "REV_AT_EPOCH": 95284, "BSTAR": 0.00018678044, "MEAN_MOTION_DOT": 1.79e-06, "MEAN_MOTION_DDOT": 0}, "tle": {"line1": "1 29893U 99025GP  25357.20905619  .00000179  00000+0  18678-3 0  9999", "line2": "2 29893  98.5529  92.2696 0173894 125.2142 295.5839 13.79466139952842"}}, "geometry": {"type": "Point", "coordinates": [91.61594783362679, 7.290763010347994]}}, {"type": "Feature", "properties": {"norad_id": 29894, "name": "FENGYUN 1C DEB", "group": "fengyun-1c-debris", "lat": 76.24274823014905, "lon": -84.87028559339467, "alt_km": 938.0343248827157, "timestamp": "2025-12-23T16:57:12.624276+00:00", "meta": {"OBJECT_NAME": "FENGYUN 1C DEB", "OBJECT_ID": "1999-025GQ", "EPOCH": "2025-12-23T02:42:39.375072", "MEAN_MOTION": 13.80984804, "ECCENTRICITY": 0.01680408, "INCLINATION": 99.4845, "RA_OF_ASC_NODE": 51.4725, "ARG_OF_PERICENTER": 17.6278, "MEAN_ANOMALY": 11.6961, "EPHEMERIS_TYPE": 0, "CLASSIFICATION_TYPE": "U", "NORAD_CAT_ID": 29894, "ELEMENT_SET_NO": 999, "REV_AT_EPOCH": 95220, "BSTAR": 0.00050634375, "MEAN_MOTION_DOT": 5.5e-06, "MEAN_MOTION_DDOT": 0}, "tle": {"line1": "1 29894U 99025GQ  25357.11295573  .00000550  00000+0  50634-3 0  9992", "line2": "2 29894  99.4845  51.4725 0168040  17.6278  11.6961 13.80984804952204"}}, "geometry": {"type": "Point", "coordinates": [-84.87028559339467, 76.24274823014905]}}, {"type": "Feature", "properties": {"norad_id": 29895, "name": "FENGYUN 1C DEB", "group": "fengyun-1c-debris", "lat": -12.298076558038442, "lon": -75.01939662279318, "alt_km": 977.2403996530293, "timestamp": "2025-12-23T16:57:12.624287+00:00", "meta": {"OBJECT_NAME": "FENGYUN 1C DEB", "OBJECT_ID": "1999-025GR", "EPOCH": "2025-12-23T05:55:30.191808", "MEAN_MOTION": 14.08331127, "ECCENTRICITY": 0.02997003, "INCLINATION": 99.8845, "RA_OF_ASC_NODE": 106.6552, "ARG_OF_PERICENTER": 314.8892, "MEAN_ANOMALY": 71.9431, "EPHEMERIS_TYPE": 0, "CLASSIFICATION_TYPE": "U", "NORAD_CAT_ID": 29895, "ELEMENT_SET_NO": 999, "REV_AT_EPOCH": 95672, "BSTAR": 0.0021940613, "MEAN_MOTION_DOT": 5.62e-05, "MEAN_MOTION_DDOT": 0}, "tle": {"line1": "1 29895U 99025GR  25357.24687722  .00005620  00000+0  21941-2 0  9999", "line2": "2 29895  99.8845 106.6552 0299700 314.8892  71.9431 14.08331127956729"}}, "geometry": {"type": "Point", "coordinates": [-75.01939662279318, -12.298076558038442]}}, {"type": "Feature", "properties": {"norad_id": 29896, "name": "FENGYUN 1C DEB", "group": "fengyun-1c-debris", "lat": 7.655876109892123, "lon": -112.14809070056306, "alt_km": 941.787319484285, "timestamp": "2025-12-23T16:57:12.624297+00:00", "meta": {"OBJECT_NAME": "FENGYUN 1C DEB", "OBJECT_ID": "1999-025GS", "EPOCH": "2025-12-23T05:13:15.050784", "MEAN_MOTION": 13.65380735, "ECCENTRICITY": 0.0240157, "INCLINATION": 99.4222, "RA_OF_ASC_NODE": 248.6557, "ARG_OF_PERICENTER": 74.983, "MEAN_ANOMALY": 53.7093, "EPHEMERIS_TYPE": 0, "CLASSIFICATION_TYPE": "U", "NORAD_CAT_ID": 29896, "ELEMENT_SET_NO": 999, "REV_AT_EPOCH": 94185, "BSTAR": 0.00067498733, "MEAN_MOTION_DOT": 6.28e-06, "MEAN_MOTION_DDOT": 0}, "tle": {"line1": "1 29896U 99025GS  25357.21753531  .00000628  00000+0  67499-3 0  9991", "line2": "2 29896  99.4222 248.6557 0240157  74.9830  53.7093 13.65380735941856"}}, "geometry": {"type": "Point", "coordinates": [-112.14809070056306, 7.655876109892123]}}, {"type": "Feature", "properties": {"norad_id": 29897, "name": "FENGYUN 1C DEB", "group": "fengyun-1c-debris", "lat": -34.48996445419349, "lon": -133.35969135171257, "alt_km": 1230.1134792610546, "timestamp": "2025-12-23T16:57:12.624307+00:00", "meta": {"OBJECT_NAME": "FENGYUN 1C DEB", "OBJECT_ID": "1999-025GT", "EPOCH": "2025-12-21T13:58:03.967104", "MEAN_MOTION": 13.57215043, "ECCENTRICITY": 0.0296934, "INCLINATION": 98.6294, "RA_OF_ASC_NODE": 218.7846, "ARG_OF_PERICENTER": 115.592, "MEAN_ANOMALY": 277.2641, "EPHEMERIS_TYPE": 0, "CLASSIFICATION_TYPE": "U", "NORAD_CAT_ID": 29897, "ELEMENT_SET_NO": 999, "REV_AT_EPOCH": 93060, "BSTAR": 0.0018724, "MEAN_MOTION_DOT": 1.744e-05, "MEAN_MOTION_DDOT": 0}, "tle": {"line1": "1 29897U 99025GT  25355.58199036  .00001744  00000+0  18724-2 0  9990", "line2": "2 29897  98.6294 218.7846 0296934 115.5920 277.2641 13.57215043930605"}}, "geometry": {"type": "Point", "coordinates": [-133.35969135171257, -34.48996445419349]}}, {"type": "Feature", "properties": {"norad_id": 29898, "name": "FENGYUN 1C DEB", "group": "fengyun-1c-debris", "lat": 8.96885495215666, "lon": 169.8122319228018, "alt_km": 690.2437852269204, "timestamp": "2025-12-23T16:57:12.624318+00:00", "meta": {"OBJECT_NAME": "FENGYUN 1C DEB", "OBJECT_ID": "1999-025GU", "EPOCH": "2025-12-23T05:40:54.844896", "MEAN_MOTION": 13.70362276, "ECCENTRICITY": 0.04271221, "INCLINATION": 98.223, "RA_OF_ASC_NODE": 348.1013, "ARG_OF_PERICENTER": 160.9287, "MEAN_ANOMALY": 213.3128, "EPHEMERIS_TYPE": 0, "CLASSIFICATION_TYPE": "U", "NORAD_CAT_ID": 29898, "ELEMENT_SET_NO": 999, "REV_AT_EPOCH": 93305, "BSTAR": 0.0015030732, "MEAN_MOTION_DOT": 2.503e-05, "MEAN_MOTION_DDOT": 0}, "tle": {"line1": "1 29898U 99025GU  25357.23674589  .00002503  00000+0  15031-2 0  9998", "line2": "2 29898  98.2230 348.1013 0427122 160.9287 213.3128 13.70362276933050"}}, "geometry": {"type": "Point", "coordinates": [169.8122319228018, 8.96885495215666]}}, {"type": "Feature", "properties": {"norad_id": 29899, "name": "FENGYUN 1C DEB", "group": "fengyun-1c-debris", "lat": -3.1620771588791627, "lon": 152.09557532754548, "alt_km": 961.9894310719883, "timestamp": "2025-12-23T16:57:12.624328+00:00", "meta": {"OBJECT_NAME": "FENGYUN 1C DEB", "OBJECT_ID": "1999-025GV", "EPOCH": "2025-12-21T09:18:52.380000", "MEAN_MOTION": 13.37494936, "ECCENTRICITY": 0.03534449, "INCLINATION": 98.662, "RA_OF_ASC_NODE": 149.6348, "ARG_OF_PERICENTER": 57.2817, "MEAN_ANOMALY": 306.1873, "EPHEMERIS_TYPE": 0, "CLASSIFICATION_TYPE": "U", "NORAD_CAT_ID": 29899, "ELEMENT_SET_NO": 999, "REV_AT_EPOCH": 92200, "BSTAR": 0.00016547652, "MEAN_MOTION_DOT": 9.1e-07, "MEAN_MOTION_DDOT": 0}, "tle": {"line1": "1 29899U 99025GV  25355.38810625  .00000091  00000+0  16548-3 0  9991", "line2": "2 29899  98.6620 149.6348 0353444  57.2817 306.1873 13.37494936922008"}}, "geometry": {"type": "Point", "coordinates": [152.09557532754548, -3.1620771588791627]}}, {"type": "Feature", "properties": {"norad_id": 29901, "name": "FENGYUN 1C DEB", "group": "fengyun-1c-debris", "lat": 25.837754819575963, "lon": 162.67924341572333, "alt_km": 1303.2987960603705, "timestamp": "2025-12-23T16:57:12.624338+00:00", "meta": {"OBJECT_NAME": "FENGYUN 1C DEB", "OBJECT_ID": "1999-025GX", "EPOCH": "2025-12-23T01:16:09.552576", "MEAN_MOTION": 13.33259774, "ECCENTRICITY": 0.03792052, "INCLINATION": 98.7448, "RA_OF_ASC_NODE": 166.3944, "ARG_OF_PERICENTER": 259.5754, "MEAN_ANOMALY": 228.1785, "EPHEMERIS_TYPE": 0, "CLASSIFICATION_TYPE": "U", "NORAD_CAT_ID": 29901, "ELEMENT_SET_NO": 999, "REV_AT_EPOCH": 92056, "BSTAR": 0.0004079484, "MEAN_MOTION_DOT": 2.62e-06, "MEAN_MOTION_DDOT": 0}, "tle": {"line1": "1 29901U 99025GX  25357.05288834  .00000262  00000+0  40795-3 0  9993", "line2": "2 29901  98.7448 166.3944 0379205 259.5754 228.1785 13.33259774920568"}}, "geometry": {"type": "Point", "coordinates": [162.67924341572333, 25.837754819575963]}}, {"type": "Feature", "properties": {"norad_id": 29904, "name": "FENGYUN 1C DEB", "group": "fengyun-1c-debris", "lat": -56.390218299909016, "lon": 50.13789020031309, "alt_km": 608.7884669397909, "timestamp": "2025-12-23T16:57:12.624349+00:00", "meta": {"OBJECT_NAME": "FENGYUN 1C DEB", "OBJECT_ID": "1999-025HA", "EPOCH": "2025-12-22T01:18:51.748704", "MEAN_MOTION": 14.44513555, "ECCENTRICITY": 0.02074519, "INCLINATION": 99.0406, "RA_OF_ASC_NODE": 34.5213, "ARG_OF_PERICENTER": 290.8807, "MEAN_ANOMALY": 67.0283, "EPHEMERIS_TYPE": 0, "CLASSIFICATION_TYPE": "U", "NORAD_CAT_ID": 29904, "ELEMENT_SET_NO": 999, "REV_AT_EPOCH": 99198, "BSTAR": 0.00038203711, "MEAN_MOTION_DOT": 1.655e-05, "MEAN_MOTION_DDOT": 0}, "tle": {"line1": "1 29904U 99025HA  25356.05476561  .00001655  00000+0  38204-3 0  9990", "line2": "2 29904  99.0406  34.5213 0207451 290.8807  67.0283 14.44513555991984"}}, "geometry": {"type": "Point", "coordinates": [50.13789020031309, -56.390218299909016]}}]}